NUSAT-47                
1 66743U 25276CF  26202.12288950  .00004097  00000+0  18993-3 0  9997
2 66743  97.4170 275.1953 0001082 177.0843 183.0399 15.20624349 35589
NUSAT-53 (JANE GOODALL) 
1 68432U 26067S   26202.13095358  .00003813  00000+0  18608-3 0  9990
2 68432  97.4577 160.1732 0000307 241.7838 118.3365 15.18887682 17095
NUSAT-54 (BRANCA MARQU*)
1 68442U 26067AC  26202.19182452  .00003619  00000+0  18116-3 0  9997
2 68442  97.4559 160.0671 0003132 336.9112  23.1980 15.18032520 17097
