{"fetched_at":"2026-07-21T17:53:39.748Z","source":"https://celestrak.org/NORAD/elements/gp.php?NAME=NUSAT&FORMAT=JSON","constellation":"satellogic","records":[{"OBJECT_NAME":"NUSAT-47","OBJECT_ID":"2025-276CF","EPOCH":"2026-07-21T02:56:57.652800","CLASSIFICATION_TYPE":"U","MEAN_MOTION":15.20624349,"ECCENTRICITY":0.00010826,"INCLINATION":97.417,"RA_OF_ASC_NODE":275.1953,"ARG_OF_PERICENTER":177.0843,"MEAN_ANOMALY":183.0399,"EPHEMERIS_TYPE":0,"NORAD_CAT_ID":66743,"ELEMENT_SET_NO":999,"REV_AT_EPOCH":3558,"BSTAR":0.00018993408,"MEAN_MOTION_DOT":0.00004097,"MEAN_MOTION_DDOT":0},{"OBJECT_NAME":"NUSAT-53 (JANE GOODALL)","OBJECT_ID":"2026-067S","EPOCH":"2026-07-21T03:08:34.389312","CLASSIFICATION_TYPE":"U","MEAN_MOTION":15.18887682,"ECCENTRICITY":0.00003077,"INCLINATION":97.4577,"RA_OF_ASC_NODE":160.1732,"ARG_OF_PERICENTER":241.7838,"MEAN_ANOMALY":118.3365,"EPHEMERIS_TYPE":0,"NORAD_CAT_ID":68432,"ELEMENT_SET_NO":999,"REV_AT_EPOCH":1709,"BSTAR":0.00018608356,"MEAN_MOTION_DOT":0.00003813,"MEAN_MOTION_DDOT":0},{"OBJECT_NAME":"NUSAT-54 (BRANCA MARQUES)","OBJECT_ID":"2026-067AC","EPOCH":"2026-07-21T04:36:13.638528","CLASSIFICATION_TYPE":"U","MEAN_MOTION":15.1803252,"ECCENTRICITY":0.00031325,"INCLINATION":97.4559,"RA_OF_ASC_NODE":160.0671,"ARG_OF_PERICENTER":336.9112,"MEAN_ANOMALY":23.198,"EPHEMERIS_TYPE":0,"NORAD_CAT_ID":68442,"ELEMENT_SET_NO":999,"REV_AT_EPOCH":1709,"BSTAR":0.00018116096,"MEAN_MOTION_DOT":0.00003619,"MEAN_MOTION_DDOT":0}]}
